STARLINK-33562          
1 62102U 24220Q   26068.69814410  .00032596  00000+0  11885-2 0  9995
2 62102  43.0044 205.4020 0001912 282.2757  77.7881 15.27588869 73026
AL MUNTHER              
1 63240U 25052AG  26068.64540749  .00017933  00000+0  65015-3 0  9992
2 63240  97.4001 323.9152 0008027 130.7043 229.4895 15.28381521 54798
